CCSDS_OMM_VERS = 2.0
CREATION_DATE  = 
ORIGINATOR     = 

OBJECT_NAME    = COSMOS 1933
OBJECT_ID      = 1988-020A
CENTER_NAME    = EARTH
REF_FRAME      = TEME
TIME_SYSTEM    = UTC
MEAN_ELEMENT_THEORY = SGP/SGP4

EPOCH          = 2026-03-03T23:44:21.506784
MEAN_MOTION    = 15.17923014
ECCENTRICITY   = .0003375
INCLINATION    = 82.5095
RA_OF_ASC_NODE = 256.5539
ARG_OF_PERICENTER = 204.5641
MEAN_ANOMALY   = 155.5433

EPHEMERIS_TYPE = 0
CLASSIFICATION_TYPE = U
NORAD_CAT_ID   = 18958
ELEMENT_SET_NO = 999
REV_AT_EPOCH   = 4936
BSTAR          = .27725E-3
MEAN_MOTION_DOT = .5653E-4
MEAN_MOTION_DDOT = 0

CCSDS_OMM_VERS = 2.0
CREATION_DATE  = 
ORIGINATOR     = 

OBJECT_NAME    = SL-3 R/B
OBJECT_ID      = 1988-032B
CENTER_NAME    = EARTH
REF_FRAME      = TEME
TIME_SYSTEM    = UTC
MEAN_ELEMENT_THEORY = SGP/SGP4

EPOCH          = 2026-03-04T11:10:27.382080
MEAN_MOTION    = 15.19836340
ECCENTRICITY   = .0024129
INCLINATION    = 97.5183
RA_OF_ASC_NODE = 46.7351
ARG_OF_PERICENTER = 251.0027
MEAN_ANOMALY   = 108.8593

EPHEMERIS_TYPE = 0
CLASSIFICATION_TYPE = U
NORAD_CAT_ID   = 19046
ELEMENT_SET_NO = 999
REV_AT_EPOCH   = 5131
BSTAR          = .3805E-3
MEAN_MOTION_DOT = .8151E-4
MEAN_MOTION_DDOT = 0

CCSDS_OMM_VERS = 2.0
CREATION_DATE  = 
ORIGINATOR     = 

OBJECT_NAME    = SL-16 R/B
OBJECT_ID      = 1988-039B
CENTER_NAME    = EARTH
REF_FRAME      = TEME
TIME_SYSTEM    = UTC
MEAN_ELEMENT_THEORY = SGP/SGP4

EPOCH          = 2026-03-04T11:37:16.493088
MEAN_MOTION    = 14.19615702
ECCENTRICITY   = .0022482
INCLINATION    = 71.0130
RA_OF_ASC_NODE = 79.5557
ARG_OF_PERICENTER = 342.0203
MEAN_ANOMALY   = 18.0125

EPHEMERIS_TYPE = 0
CLASSIFICATION_TYPE = U
NORAD_CAT_ID   = 19120
ELEMENT_SET_NO = 999
REV_AT_EPOCH   = 95764
BSTAR          = .23281E-4
MEAN_MOTION_DOT = .1E-7
MEAN_MOTION_DDOT = 0

CCSDS_OMM_VERS = 2.0
CREATION_DATE  = 
ORIGINATOR     = 

OBJECT_NAME    = COSMOS 1953
OBJECT_ID      = 1988-050A
CENTER_NAME    = EARTH
REF_FRAME      = TEME
TIME_SYSTEM    = UTC
MEAN_ELEMENT_THEORY = SGP/SGP4

EPOCH          = 2026-03-04T07:44:49.851744
MEAN_MOTION    = 15.28411280
ECCENTRICITY   = .0012208
INCLINATION    = 82.5119
RA_OF_ASC_NODE = 163.6431
ARG_OF_PERICENTER = 139.8688
MEAN_ANOMALY   = 220.3455

EPHEMERIS_TYPE = 0
CLASSIFICATION_TYPE = U
NORAD_CAT_ID   = 19210
ELEMENT_SET_NO = 999
REV_AT_EPOCH   = 3696
BSTAR          = .48175E-3
MEAN_MOTION_DOT = .1339E-3
MEAN_MOTION_DDOT = 0

CCSDS_OMM_VERS = 2.0
CREATION_DATE  = 
ORIGINATOR     = 

OBJECT_NAME    = SL-8 R/B
OBJECT_ID      = 1988-053B
CENTER_NAME    = EARTH
REF_FRAME      = TEME
TIME_SYSTEM    = UTC
MEAN_ELEMENT_THEORY = SGP/SGP4

EPOCH          = 2026-03-04T12:28:10.447104
MEAN_MOTION    = 14.38912365
ECCENTRICITY   = .002132
INCLINATION    = 74.0468
RA_OF_ASC_NODE = 121.9967
ARG_OF_PERICENTER = 302.0399
MEAN_ANOMALY   = 160.0341

EPHEMERIS_TYPE = 0
CLASSIFICATION_TYPE = U
NORAD_CAT_ID   = 19257
ELEMENT_SET_NO = 999
REV_AT_EPOCH   = 97585
BSTAR          = .1297E-3
MEAN_MOTION_DOT = .374E-5
MEAN_MOTION_DDOT = 0

CCSDS_OMM_VERS = 2.0
CREATION_DATE  = 
ORIGINATOR     = 

OBJECT_NAME    = COSMOS 1975
OBJECT_ID      = 1988-093A
CENTER_NAME    = EARTH
REF_FRAME      = TEME
TIME_SYSTEM    = UTC
MEAN_ELEMENT_THEORY = SGP/SGP4

EPOCH          = 2026-03-04T05:22:31.412352
MEAN_MOTION    = 15.27974687
ECCENTRICITY   = .0011696
INCLINATION    = 82.5197
RA_OF_ASC_NODE = 123.1719
ARG_OF_PERICENTER = 182.1757
MEAN_ANOMALY   = 177.9433

EPHEMERIS_TYPE = 0
CLASSIFICATION_TYPE = U
NORAD_CAT_ID   = 19573
ELEMENT_SET_NO = 999
REV_AT_EPOCH   = 1857
BSTAR          = .42076E-3
MEAN_MOTION_DOT = .1154E-3
MEAN_MOTION_DDOT = 0

CCSDS_OMM_VERS = 2.0
CREATION_DATE  = 
ORIGINATOR     = 

OBJECT_NAME    = SL-14 R/B
OBJECT_ID      = 1988-093B
CENTER_NAME    = EARTH
REF_FRAME      = TEME
TIME_SYSTEM    = UTC
MEAN_ELEMENT_THEORY = SGP/SGP4

EPOCH          = 2026-03-04T11:42:18.389376
MEAN_MOTION    = 14.85649461
ECCENTRICITY   = .0022067
INCLINATION    = 82.5295
RA_OF_ASC_NODE = 46.9274
ARG_OF_PERICENTER = 57.7631
MEAN_ANOMALY   = 65.2466

EPHEMERIS_TYPE = 0
CLASSIFICATION_TYPE = U
NORAD_CAT_ID   = 19574
ELEMENT_SET_NO = 999
REV_AT_EPOCH   = 24
BSTAR          = .95423E-4
MEAN_MOTION_DOT = .854E-5
MEAN_MOTION_DDOT = 0

CCSDS_OMM_VERS = 2.0
CREATION_DATE  = 
ORIGINATOR     = 

OBJECT_NAME    = SL-16 R/B
OBJECT_ID      = 1988-102B
CENTER_NAME    = EARTH
REF_FRAME      = TEME
TIME_SYSTEM    = UTC
MEAN_ELEMENT_THEORY = SGP/SGP4

EPOCH          = 2026-03-04T11:11:05.320320
MEAN_MOTION    = 14.16149548
ECCENTRICITY   = .001362
INCLINATION    = 71.0000
RA_OF_ASC_NODE = 162.4875
ARG_OF_PERICENTER = 9.5875
MEAN_ANOMALY   = 350.5505

EPHEMERIS_TYPE = 0
CLASSIFICATION_TYPE = U
NORAD_CAT_ID   = 19650
ELEMENT_SET_NO = 999
REV_AT_EPOCH   = 92615
BSTAR          = .47301E-4
MEAN_MOTION_DOT = .46E-6
MEAN_MOTION_DDOT = 0

CCSDS_OMM_VERS = 2.0
CREATION_DATE  = 
ORIGINATOR     = 

OBJECT_NAME    = INTERCOSMOS 24
OBJECT_ID      = 1989-080A
CENTER_NAME    = EARTH
REF_FRAME      = TEME
TIME_SYSTEM    = UTC
MEAN_ELEMENT_THEORY = SGP/SGP4

EPOCH          = 2026-03-04T03:54:51.354432
MEAN_MOTION    = 12.59548100
ECCENTRICITY   = .1186814
INCLINATION    = 82.6032
RA_OF_ASC_NODE = 108.0033
ARG_OF_PERICENTER = 305.6605
MEAN_ANOMALY   = 43.9526

EPHEMERIS_TYPE = 0
CLASSIFICATION_TYPE = U
NORAD_CAT_ID   = 20261
ELEMENT_SET_NO = 999
REV_AT_EPOCH   = 66610
BSTAR          = .26921E-3
MEAN_MOTION_DOT = .905E-5
MEAN_MOTION_DDOT = 0

CCSDS_OMM_VERS = 2.0
CREATION_DATE  = 
ORIGINATOR     = 

OBJECT_NAME    = SL-14 R/B
OBJECT_ID      = 1989-080C
CENTER_NAME    = EARTH
REF_FRAME      = TEME
TIME_SYSTEM    = UTC
MEAN_ELEMENT_THEORY = SGP/SGP4

EPOCH          = 2026-03-04T08:30:31.207968
MEAN_MOTION    = 12.50486052
ECCENTRICITY   = .1230366
INCLINATION    = 82.5971
RA_OF_ASC_NODE = 176.6101
ARG_OF_PERICENTER = 196.9414
MEAN_ANOMALY   = 158.6880

EPHEMERIS_TYPE = 0
CLASSIFICATION_TYPE = U
NORAD_CAT_ID   = 20262
ELEMENT_SET_NO = 999
REV_AT_EPOCH   = 65948
BSTAR          = .261E-3
MEAN_MOTION_DOT = .876E-5
MEAN_MOTION_DDOT = 0

CCSDS_OMM_VERS = 2.0
CREATION_DATE  = 
ORIGINATOR     = 

OBJECT_NAME    = DELTA 1 R/B
OBJECT_ID      = 1989-089B
CENTER_NAME    = EARTH
REF_FRAME      = TEME
TIME_SYSTEM    = UTC
MEAN_ELEMENT_THEORY = SGP/SGP4

EPOCH          = 2026-03-04T10:44:34.266912
MEAN_MOTION    = 14.50658497
ECCENTRICITY   = .0070144
INCLINATION    = 97.0709
RA_OF_ASC_NODE = 271.7200
ARG_OF_PERICENTER = 138.3013
MEAN_ANOMALY   = 222.3562

EPHEMERIS_TYPE = 0
CLASSIFICATION_TYPE = U
NORAD_CAT_ID   = 20323
ELEMENT_SET_NO = 999
REV_AT_EPOCH   = 89497
BSTAR          = .13918E-3
MEAN_MOTION_DOT = .529E-5
MEAN_MOTION_DDOT = 0

CCSDS_OMM_VERS = 2.0
CREATION_DATE  = 
ORIGINATOR     = 

OBJECT_NAME    = ARIANE 40 R/B
OBJECT_ID      = 1990-005H
CENTER_NAME    = EARTH
REF_FRAME      = TEME
TIME_SYSTEM    = UTC
MEAN_ELEMENT_THEORY = SGP/SGP4

EPOCH          = 2026-03-04T04:26:01.815936
MEAN_MOTION    = 14.39866455
ECCENTRICITY   = .0009519
INCLINATION    = 98.3095
RA_OF_ASC_NODE = 124.0100
ARG_OF_PERICENTER = 215.6942
MEAN_ANOMALY   = 144.3611

EPHEMERIS_TYPE = 0
CLASSIFICATION_TYPE = U
NORAD_CAT_ID   = 20443
ELEMENT_SET_NO = 999
REV_AT_EPOCH   = 89201
BSTAR          = .14118E-3
MEAN_MOTION_DOT = .401E-5
MEAN_MOTION_DDOT = 0

